<?xml version="1.0" encoding="UTF-8"?>
<gpx creator="Insta360 Studio" version="1.1" xmlns="http://www.topografix.com/GPX/1/1">
  <metadata>
    <link href="https://www.insta360.com">
      <text>Insta360 GPS Dashboard</text>
    </link>
    <time>2026-07-26T10:45:25Z</time>
    <bounds maxlat="59.932577622164828" maxlon="10.723979648699192" minlat="59.927397383596286" minlon="10.719008590063789"/>
  </metadata>
  <trk>
    <name>Insta360 GPS Data</name>
    <trkseg>
      <trkpt lat="59.927633529925878" lon="10.719010956562494">
        <ele>106.859</ele>
        <time>2026-07-26T09:58:57Z</time>
      </trkpt>
      <trkpt lat="59.927633530600239" lon="10.71901094991007">
        <ele>106.858</ele>
        <time>2026-07-26T09:59:14Z</time>
      </trkpt>
      <trkpt lat="59.927633566059853" lon="10.719010841692981">
        <ele>106.853</ele>
        <time>2026-07-26T09:59:15Z</time>
      </trkpt>
      <trkpt lat="59.927633922315501" lon="10.719010430934755">
        <ele>106.826</ele>
        <time>2026-07-26T09:59:16Z</time>
      </trkpt>
      <trkpt lat="59.927635462283554" lon="10.719009545857356">
        <ele>106.741</ele>
        <time>2026-07-26T09:59:17Z</time>
      </trkpt>
      <trkpt lat="59.927639687028105" lon="10.719008590063789">
        <ele>106.564</ele>
        <time>2026-07-26T09:59:18Z</time>
      </trkpt>
      <trkpt lat="59.927648467838829" lon="10.719009341223082">
        <ele>106.248</ele>
        <time>2026-07-26T09:59:19Z</time>
      </trkpt>
      <trkpt lat="59.927663500450521" lon="10.719014982289421">
        <ele>105.785</ele>
        <time>2026-07-26T09:59:20Z</time>
      </trkpt>
      <trkpt lat="59.92768438149875" lon="10.719029508763548">
        <ele>105.196</ele>
        <time>2026-07-26T09:59:21Z</time>
      </trkpt>
      <trkpt lat="59.92770965616959" lon="10.719051009007897">
        <ele>104.619</ele>
        <time>2026-07-26T09:59:22Z</time>
      </trkpt>
      <trkpt lat="59.927737070289893" lon="10.719077319254668">
        <ele>104.066</ele>
        <time>2026-07-26T09:59:23Z</time>
      </trkpt>
      <trkpt lat="59.927765048623804" lon="10.719108494119387">
        <ele>103.617</ele>
        <time>2026-07-26T09:59:24Z</time>
      </trkpt>
      <trkpt lat="59.927791388395214" lon="10.719144543725953">
        <ele>103.251</ele>
        <time>2026-07-26T09:59:25Z</time>
      </trkpt>
      <trkpt lat="59.927817133502948" lon="10.71918553406956">
        <ele>102.99</ele>
        <time>2026-07-26T09:59:26Z</time>
      </trkpt>
      <trkpt lat="59.927842735351796" lon="10.71922995357531">
        <ele>102.801</ele>
        <time>2026-07-26T09:59:27Z</time>
      </trkpt>
      <trkpt lat="59.927867892363778" lon="10.719278439941737">
        <ele>102.702</ele>
        <time>2026-07-26T09:59:28Z</time>
      </trkpt>
      <trkpt lat="59.927892289164141" lon="10.719329407988063">
        <ele>102.634</ele>
        <time>2026-07-26T09:59:29Z</time>
      </trkpt>
      <trkpt lat="59.927916069318336" lon="10.719381468898764">
        <ele>102.582</ele>
        <time>2026-07-26T09:59:30Z</time>
      </trkpt>
      <trkpt lat="59.927939117396335" lon="10.71943467140218">
        <ele>102.599</ele>
        <time>2026-07-26T09:59:31Z</time>
      </trkpt>
      <trkpt lat="59.927961715034115" lon="10.719487559290343">
        <ele>102.66</ele>
        <time>2026-07-26T09:59:32Z</time>
      </trkpt>
      <trkpt lat="59.927984551235049" lon="10.719540159972727">
        <ele>102.746</ele>
        <time>2026-07-26T09:59:33Z</time>
      </trkpt>
      <trkpt lat="59.928007820527675" lon="10.719592054293244">
        <ele>102.869</ele>
        <time>2026-07-26T09:59:34Z</time>
      </trkpt>
      <trkpt lat="59.928029752151559" lon="10.719641166782987">
        <ele>103.016</ele>
        <time>2026-07-26T09:59:35Z</time>
      </trkpt>
      <trkpt lat="59.928048784366588" lon="10.719685640944812">
        <ele>103.223</ele>
        <time>2026-07-26T09:59:36Z</time>
      </trkpt>
      <trkpt lat="59.928064008367564" lon="10.719725593447381">
        <ele>103.377</ele>
        <time>2026-07-26T09:59:37Z</time>
      </trkpt>
      <trkpt lat="59.928076375693941" lon="10.719762035084905">
        <ele>103.517</ele>
        <time>2026-07-26T09:59:38Z</time>
      </trkpt>
      <trkpt lat="59.928090260562399" lon="10.719798542426602">
        <ele>103.707</ele>
        <time>2026-07-26T09:59:39Z</time>
      </trkpt>
      <trkpt lat="59.928105402066052" lon="10.71983498709821">
        <ele>103.894</ele>
        <time>2026-07-26T09:59:40Z</time>
      </trkpt>
      <trkpt lat="59.928121571610099" lon="10.719873489794013">
        <ele>104.171</ele>
        <time>2026-07-26T09:59:41Z</time>
      </trkpt>
      <trkpt lat="59.92813863567217" lon="10.719913520553462">
        <ele>104.375</ele>
        <time>2026-07-26T09:59:42Z</time>
      </trkpt>
      <trkpt lat="59.928156592946706" lon="10.719954263532712">
        <ele>104.531</ele>
        <time>2026-07-26T09:59:43Z</time>
      </trkpt>
      <trkpt lat="59.928174882263704" lon="10.719993584958939">
        <ele>104.625</ele>
        <time>2026-07-26T09:59:44Z</time>
      </trkpt>
      <trkpt lat="59.928192464869674" lon="10.720031641557446">
        <ele>104.762</ele>
        <time>2026-07-26T09:59:45Z</time>
      </trkpt>
      <trkpt lat="59.928208609638425" lon="10.720069459477024">
        <ele>104.848</ele>
        <time>2026-07-26T09:59:46Z</time>
      </trkpt>
      <trkpt lat="59.928221473121141" lon="10.720109797786289">
        <ele>104.925</ele>
        <time>2026-07-26T09:59:47Z</time>
      </trkpt>
      <trkpt lat="59.92823084768483" lon="10.72015064291624">
        <ele>105.079</ele>
        <time>2026-07-26T09:59:48Z</time>
      </trkpt>
      <trkpt lat="59.928237300095425" lon="10.720190974142291">
        <ele>105.202</ele>
        <time>2026-07-26T09:59:49Z</time>
      </trkpt>
      <trkpt lat="59.928243334303623" lon="10.720228146973069">
        <ele>105.261</ele>
        <time>2026-07-26T09:59:50Z</time>
      </trkpt>
      <trkpt lat="59.928251639566753" lon="10.720258529419366">
        <ele>105.317</ele>
        <time>2026-07-26T09:59:51Z</time>
      </trkpt>
      <trkpt lat="59.928262247498125" lon="10.72027795566961">
        <ele>105.362</ele>
        <time>2026-07-26T09:59:52Z</time>
      </trkpt>
      <trkpt lat="59.92827311692416" lon="10.720284852567444">
        <ele>105.362</ele>
        <time>2026-07-26T09:59:53Z</time>
      </trkpt>
      <trkpt lat="59.928283428893593" lon="10.7202825388195">
        <ele>105.314</ele>
        <time>2026-07-26T09:59:54Z</time>
      </trkpt>
      <trkpt lat="59.928296669343709" lon="10.720280631891862">
        <ele>105.212</ele>
        <time>2026-07-26T10:00:02Z</time>
      </trkpt>
      <trkpt lat="59.928310424683481" lon="10.720287147689337">
        <ele>105.157</ele>
        <time>2026-07-26T10:00:03Z</time>
      </trkpt>
      <trkpt lat="59.928324751817726" lon="10.720305255574559">
        <ele>105.076</ele>
        <time>2026-07-26T10:00:04Z</time>
      </trkpt>
      <trkpt lat="59.928339561928773" lon="10.720335612990073">
        <ele>105</ele>
        <time>2026-07-26T10:00:05Z</time>
      </trkpt>
      <trkpt lat="59.928356243130125" lon="10.720375346492292">
        <ele>104.977</ele>
        <time>2026-07-26T10:00:06Z</time>
      </trkpt>
      <trkpt lat="59.928375428655514" lon="10.720421756678103">
        <ele>105.01</ele>
        <time>2026-07-26T10:00:07Z</time>
      </trkpt>
      <trkpt lat="59.928396805926255" lon="10.720473324532305">
        <ele>105.01</ele>
        <time>2026-07-26T10:00:08Z</time>
      </trkpt>
      <trkpt lat="59.928420998557456" lon="10.720530219729888">
        <ele>105.012</ele>
        <time>2026-07-26T10:00:09Z</time>
      </trkpt>
      <trkpt lat="59.928448055834238" lon="10.720591573835728">
        <ele>105.019</ele>
        <time>2026-07-26T10:00:10Z</time>
      </trkpt>
      <trkpt lat="59.928477919160628" lon="10.720655823828253">
        <ele>105.038</ele>
        <time>2026-07-26T10:00:11Z</time>
      </trkpt>
      <trkpt lat="59.928509842987054" lon="10.720722281091996">
        <ele>105.035</ele>
        <time>2026-07-26T10:00:12Z</time>
      </trkpt>
      <trkpt lat="59.928542387138968" lon="10.720791273590372">
        <ele>105.029</ele>
        <time>2026-07-26T10:00:13Z</time>
      </trkpt>
      <trkpt lat="59.928575205960257" lon="10.720861435333354">
        <ele>105.066</ele>
        <time>2026-07-26T10:00:14Z</time>
      </trkpt>
      <trkpt lat="59.928607917839422" lon="10.720931615218655">
        <ele>105.059</ele>
        <time>2026-07-26T10:00:15Z</time>
      </trkpt>
      <trkpt lat="59.92864081885886" lon="10.720999561016265">
        <ele>105.031</ele>
        <time>2026-07-26T10:00:16Z</time>
      </trkpt>
      <trkpt lat="59.928674693741911" lon="10.721061077091472">
        <ele>104.992</ele>
        <time>2026-07-26T10:00:17Z</time>
      </trkpt>
      <trkpt lat="59.928709157969692" lon="10.721116319435009">
        <ele>104.959</ele>
        <time>2026-07-26T10:00:18Z</time>
      </trkpt>
      <trkpt lat="59.928745297236162" lon="10.72115112096318">
        <ele>105.013</ele>
        <time>2026-07-26T10:00:19Z</time>
      </trkpt>
      <trkpt lat="59.928782101078369" lon="10.721162311209383">
        <ele>105.041</ele>
        <time>2026-07-26T10:00:20Z</time>
      </trkpt>
      <trkpt lat="59.928818706653679" lon="10.721154195291522">
        <ele>105.069</ele>
        <time>2026-07-26T10:00:21Z</time>
      </trkpt>
      <trkpt lat="59.928854214211405" lon="10.721124865955703">
        <ele>105.015</ele>
        <time>2026-07-26T10:00:22Z</time>
      </trkpt>
      <trkpt lat="59.928888641438547" lon="10.721079420414338">
        <ele>104.947</ele>
        <time>2026-07-26T10:00:23Z</time>
      </trkpt>
      <trkpt lat="59.928923691457122" lon="10.721019890164875">
        <ele>104.952</ele>
        <time>2026-07-26T10:00:24Z</time>
      </trkpt>
      <trkpt lat="59.928960454577769" lon="10.720949898314672">
        <ele>104.927</ele>
        <time>2026-07-26T10:00:25Z</time>
      </trkpt>
      <trkpt lat="59.928999219272669" lon="10.720873943579935">
        <ele>104.942</ele>
        <time>2026-07-26T10:00:26Z</time>
      </trkpt>
      <trkpt lat="59.929038925989815" lon="10.720793088900248">
        <ele>104.934</ele>
        <time>2026-07-26T10:00:27Z</time>
      </trkpt>
      <trkpt lat="59.929077866265374" lon="10.720711213997557">
        <ele>104.93</ele>
        <time>2026-07-26T10:00:28Z</time>
      </trkpt>
      <trkpt lat="59.929115930420252" lon="10.720629358857215">
        <ele>104.943</ele>
        <time>2026-07-26T10:00:29Z</time>
      </trkpt>
      <trkpt lat="59.929154027673675" lon="10.720545250312284">
        <ele>104.917</ele>
        <time>2026-07-26T10:00:30Z</time>
      </trkpt>
      <trkpt lat="59.929193107438032" lon="10.720460879549449">
        <ele>104.884</ele>
        <time>2026-07-26T10:00:31Z</time>
      </trkpt>
      <trkpt lat="59.929232455062916" lon="10.720379052008848">
        <ele>104.826</ele>
        <time>2026-07-26T10:00:32Z</time>
      </trkpt>
      <trkpt lat="59.929272199372079" lon="10.720298764125975">
        <ele>104.744</ele>
        <time>2026-07-26T10:00:33Z</time>
      </trkpt>
      <trkpt lat="59.929311294482623" lon="10.720219349010666">
        <ele>104.66</ele>
        <time>2026-07-26T10:00:34Z</time>
      </trkpt>
      <trkpt lat="59.929349990940644" lon="10.720141844081834">
        <ele>104.537</ele>
        <time>2026-07-26T10:00:35Z</time>
      </trkpt>
      <trkpt lat="59.929387698206682" lon="10.720068152108873">
        <ele>104.378</ele>
        <time>2026-07-26T10:00:36Z</time>
      </trkpt>
      <trkpt lat="59.929423444714367" lon="10.719996736902067">
        <ele>104.25</ele>
        <time>2026-07-26T10:00:37Z</time>
      </trkpt>
      <trkpt lat="59.929458122738765" lon="10.719928797756005">
        <ele>104.181</ele>
        <time>2026-07-26T10:00:38Z</time>
      </trkpt>
      <trkpt lat="59.929492518949068" lon="10.719867292461954">
        <ele>104.098</ele>
        <time>2026-07-26T10:00:39Z</time>
      </trkpt>
      <trkpt lat="59.929527651685994" lon="10.719819311662086">
        <ele>104.056</ele>
        <time>2026-07-26T10:00:40Z</time>
      </trkpt>
      <trkpt lat="59.929562685351073" lon="10.719785439566417">
        <ele>104.016</ele>
        <time>2026-07-26T10:00:41Z</time>
      </trkpt>
      <trkpt lat="59.929596981076443" lon="10.71976660212529">
        <ele>104.046</ele>
        <time>2026-07-26T10:00:42Z</time>
      </trkpt>
      <trkpt lat="59.929630258238284" lon="10.719766335125348">
        <ele>104.121</ele>
        <time>2026-07-26T10:00:43Z</time>
      </trkpt>
      <trkpt lat="59.929661613585978" lon="10.719789450641407">
        <ele>104.174</ele>
        <time>2026-07-26T10:00:44Z</time>
      </trkpt>
      <trkpt lat="59.929691745848494" lon="10.719834586766115">
        <ele>104.21</ele>
        <time>2026-07-26T10:00:45Z</time>
      </trkpt>
      <trkpt lat="59.929720701801614" lon="10.71989970452557">
        <ele>104.338</ele>
        <time>2026-07-26T10:00:46Z</time>
      </trkpt>
      <trkpt lat="59.92974814918896" lon="10.719979346338665">
        <ele>104.505</ele>
        <time>2026-07-26T10:00:47Z</time>
      </trkpt>
      <trkpt lat="59.929774987874254" lon="10.720069691782584">
        <ele>104.721</ele>
        <time>2026-07-26T10:00:48Z</time>
      </trkpt>
      <trkpt lat="59.929801673390102" lon="10.720166367156274">
        <ele>104.933</ele>
        <time>2026-07-26T10:00:49Z</time>
      </trkpt>
      <trkpt lat="59.929827870611767" lon="10.720266297727887">
        <ele>105.121</ele>
        <time>2026-07-26T10:00:50Z</time>
      </trkpt>
      <trkpt lat="59.929853027560284" lon="10.720367905990397">
        <ele>105.308</ele>
        <time>2026-07-26T10:00:51Z</time>
      </trkpt>
      <trkpt lat="59.929878095735326" lon="10.720468715566772">
        <ele>105.471</ele>
        <time>2026-07-26T10:00:52Z</time>
      </trkpt>
      <trkpt lat="59.929903363653871" lon="10.720567985148589">
        <ele>105.548</ele>
        <time>2026-07-26T10:00:53Z</time>
      </trkpt>
      <trkpt lat="59.929928206004803" lon="10.720665318933404">
        <ele>105.585</ele>
        <time>2026-07-26T10:00:54Z</time>
      </trkpt>
      <trkpt lat="59.929954045878844" lon="10.720759749144422">
        <ele>105.634</ele>
        <time>2026-07-26T10:00:55Z</time>
      </trkpt>
      <trkpt lat="59.92998071360681" lon="10.720850544983387">
        <ele>105.711</ele>
        <time>2026-07-26T10:00:56Z</time>
      </trkpt>
      <trkpt lat="59.930007617248961" lon="10.720938592610851">
        <ele>105.812</ele>
        <time>2026-07-26T10:00:57Z</time>
      </trkpt>
      <trkpt lat="59.930034660841322" lon="10.721024193263094">
        <ele>105.906</ele>
        <time>2026-07-26T10:00:58Z</time>
      </trkpt>
      <trkpt lat="59.93006171867156" lon="10.721108510241656">
        <ele>105.966</ele>
        <time>2026-07-26T10:00:59Z</time>
      </trkpt>
      <trkpt lat="59.930088466057839" lon="10.721191589790362">
        <ele>105.985</ele>
        <time>2026-07-26T10:01:00Z</time>
      </trkpt>
      <trkpt lat="59.930114049928946" lon="10.721271371504285">
        <ele>105.96</ele>
        <time>2026-07-26T10:01:01Z</time>
      </trkpt>
      <trkpt lat="59.930139258575103" lon="10.721349231366538">
        <ele>105.882</ele>
        <time>2026-07-26T10:01:02Z</time>
      </trkpt>
      <trkpt lat="59.930165829180517" lon="10.721425302294953">
        <ele>105.843</ele>
        <time>2026-07-26T10:01:03Z</time>
      </trkpt>
      <trkpt lat="59.930194673849243" lon="10.721499073585338">
        <ele>105.782</ele>
        <time>2026-07-26T10:01:04Z</time>
      </trkpt>
      <trkpt lat="59.930223004471706" lon="10.721571334309832">
        <ele>105.855</ele>
        <time>2026-07-26T10:01:05Z</time>
      </trkpt>
      <trkpt lat="59.93025044929027" lon="10.721641046874545">
        <ele>105.918</ele>
        <time>2026-07-26T10:01:06Z</time>
      </trkpt>
      <trkpt lat="59.930275538743516" lon="10.721709945937612">
        <ele>105.966</ele>
        <time>2026-07-26T10:01:07Z</time>
      </trkpt>
      <trkpt lat="59.930296582569461" lon="10.721780015754593">
        <ele>106.013</ele>
        <time>2026-07-26T10:01:08Z</time>
      </trkpt>
      <trkpt lat="59.93030916760916" lon="10.721851919906998">
        <ele>106.007</ele>
        <time>2026-07-26T10:01:09Z</time>
      </trkpt>
      <trkpt lat="59.930311561598494" lon="10.72192578728327">
        <ele>105.953</ele>
        <time>2026-07-26T10:01:10Z</time>
      </trkpt>
      <trkpt lat="59.930305491103503" lon="10.722000184168037">
        <ele>105.937</ele>
        <time>2026-07-26T10:01:11Z</time>
      </trkpt>
      <trkpt lat="59.930287479954998" lon="10.722070898318307">
        <ele>105.918</ele>
        <time>2026-07-26T10:01:12Z</time>
      </trkpt>
      <trkpt lat="59.930258340484237" lon="10.7221372813949">
        <ele>105.909</ele>
        <time>2026-07-26T10:01:13Z</time>
      </trkpt>
      <trkpt lat="59.930218537618636" lon="10.722200383708067">
        <ele>105.876</ele>
        <time>2026-07-26T10:01:14Z</time>
      </trkpt>
      <trkpt lat="59.930168946349859" lon="10.722263225887676">
        <ele>105.803</ele>
        <time>2026-07-26T10:01:15Z</time>
      </trkpt>
      <trkpt lat="59.930113066808538" lon="10.722325734753623">
        <ele>105.776</ele>
        <time>2026-07-26T10:01:16Z</time>
      </trkpt>
      <trkpt lat="59.93005283738713" lon="10.722387412827549">
        <ele>105.773</ele>
        <time>2026-07-26T10:01:17Z</time>
      </trkpt>
      <trkpt lat="59.929990895046195" lon="10.722447164650209">
        <ele>105.745</ele>
        <time>2026-07-26T10:01:18Z</time>
      </trkpt>
      <trkpt lat="59.929928369371801" lon="10.72250408154936">
        <ele>105.77</ele>
        <time>2026-07-26T10:01:19Z</time>
      </trkpt>
      <trkpt lat="59.92986651647206" lon="10.722560546789063">
        <ele>105.804</ele>
        <time>2026-07-26T10:01:20Z</time>
      </trkpt>
      <trkpt lat="59.92980598272473" lon="10.722617112690987">
        <ele>105.834</ele>
        <time>2026-07-26T10:01:21Z</time>
      </trkpt>
      <trkpt lat="59.929747079198911" lon="10.722671618986247">
        <ele>105.844</ele>
        <time>2026-07-26T10:01:22Z</time>
      </trkpt>
      <trkpt lat="59.929690480258181" lon="10.722724681119491">
        <ele>105.899</ele>
        <time>2026-07-26T10:01:23Z</time>
      </trkpt>
      <trkpt lat="59.929636299767786" lon="10.72277501987203">
        <ele>105.947</ele>
        <time>2026-07-26T10:01:24Z</time>
      </trkpt>
      <trkpt lat="59.929584321026887" lon="10.722824366296827">
        <ele>105.991</ele>
        <time>2026-07-26T10:01:25Z</time>
      </trkpt>
      <trkpt lat="59.929534326419969" lon="10.722873709638442">
        <ele>106.032</ele>
        <time>2026-07-26T10:01:26Z</time>
      </trkpt>
      <trkpt lat="59.929486519842186" lon="10.722923200800228">
        <ele>106.094</ele>
        <time>2026-07-26T10:01:27Z</time>
      </trkpt>
      <trkpt lat="59.92944086737608" lon="10.722973840167427">
        <ele>106.198</ele>
        <time>2026-07-26T10:01:28Z</time>
      </trkpt>
      <trkpt lat="59.929396560850826" lon="10.723025199648122">
        <ele>106.296</ele>
        <time>2026-07-26T10:01:29Z</time>
      </trkpt>
      <trkpt lat="59.929352812821605" lon="10.723077588262067">
        <ele>106.367</ele>
        <time>2026-07-26T10:01:30Z</time>
      </trkpt>
      <trkpt lat="59.929309708974586" lon="10.723129613412338">
        <ele>106.387</ele>
        <time>2026-07-26T10:01:31Z</time>
      </trkpt>
      <trkpt lat="59.929267056488527" lon="10.723181873643156">
        <ele>106.347</ele>
        <time>2026-07-26T10:01:32Z</time>
      </trkpt>
      <trkpt lat="59.929224410171678" lon="10.723234722852693">
        <ele>106.283</ele>
        <time>2026-07-26T10:01:33Z</time>
      </trkpt>
      <trkpt lat="59.929181900273448" lon="10.72328716230712">
        <ele>106.196</ele>
        <time>2026-07-26T10:01:34Z</time>
      </trkpt>
      <trkpt lat="59.929140224665979" lon="10.72333978294767">
        <ele>106.137</ele>
        <time>2026-07-26T10:01:35Z</time>
      </trkpt>
      <trkpt lat="59.929099585515075" lon="10.723391422636244">
        <ele>106.064</ele>
        <time>2026-07-26T10:01:36Z</time>
      </trkpt>
      <trkpt lat="59.929060048101789" lon="10.723442025531883">
        <ele>105.981</ele>
        <time>2026-07-26T10:01:37Z</time>
      </trkpt>
      <trkpt lat="59.929021167802695" lon="10.723491322018145">
        <ele>105.923</ele>
        <time>2026-07-26T10:01:38Z</time>
      </trkpt>
      <trkpt lat="59.928982924102712" lon="10.723539742054946">
        <ele>105.866</ele>
        <time>2026-07-26T10:01:39Z</time>
      </trkpt>
      <trkpt lat="59.928945465861553" lon="10.723584077855563">
        <ele>105.814</ele>
        <time>2026-07-26T10:01:40Z</time>
      </trkpt>
      <trkpt lat="59.928910168590399" lon="10.723622105913142">
        <ele>105.755</ele>
        <time>2026-07-26T10:01:41Z</time>
      </trkpt>
      <trkpt lat="59.928876160319085" lon="10.723650512327531">
        <ele>105.731</ele>
        <time>2026-07-26T10:01:42Z</time>
      </trkpt>
      <trkpt lat="59.928843975425814" lon="10.723666031753902">
        <ele>105.683</ele>
        <time>2026-07-26T10:01:43Z</time>
      </trkpt>
      <trkpt lat="59.928814046103525" lon="10.723671195417566">
        <ele>105.65</ele>
        <time>2026-07-26T10:01:44Z</time>
      </trkpt>
      <trkpt lat="59.928786599119448" lon="10.723657108605341">
        <ele>105.605</ele>
        <time>2026-07-26T10:01:45Z</time>
      </trkpt>
      <trkpt lat="59.928762251606599" lon="10.72362591001561">
        <ele>105.594</ele>
        <time>2026-07-26T10:01:46Z</time>
      </trkpt>
      <trkpt lat="59.928740047199312" lon="10.723582848408908">
        <ele>105.635</ele>
        <time>2026-07-26T10:01:47Z</time>
      </trkpt>
      <trkpt lat="59.928720611882291" lon="10.723528749418636">
        <ele>105.81</ele>
        <time>2026-07-26T10:01:48Z</time>
      </trkpt>
      <trkpt lat="59.928700845566603" lon="10.723461212159025">
        <ele>105.867</ele>
        <time>2026-07-26T10:01:49Z</time>
      </trkpt>
      <trkpt lat="59.928680044620819" lon="10.723381959499779">
        <ele>105.913</ele>
        <time>2026-07-26T10:01:50Z</time>
      </trkpt>
      <trkpt lat="59.928658395121651" lon="10.723294509302782">
        <ele>105.927</ele>
        <time>2026-07-26T10:01:51Z</time>
      </trkpt>
      <trkpt lat="59.928636692397419" lon="10.72320252101821">
        <ele>105.919</ele>
        <time>2026-07-26T10:01:52Z</time>
      </trkpt>
      <trkpt lat="59.928614837219207" lon="10.723108667008573">
        <ele>105.864</ele>
        <time>2026-07-26T10:01:53Z</time>
      </trkpt>
      <trkpt lat="59.92859215597796" lon="10.723017012282885">
        <ele>105.885</ele>
        <time>2026-07-26T10:01:54Z</time>
      </trkpt>
      <trkpt lat="59.928567881585693" lon="10.722930636978159">
        <ele>105.844</ele>
        <time>2026-07-26T10:01:55Z</time>
      </trkpt>
      <trkpt lat="59.9285399702758" lon="10.72285596583459">
        <ele>105.764</ele>
        <time>2026-07-26T10:01:56Z</time>
      </trkpt>
      <trkpt lat="59.928509647034154" lon="10.722794007644991">
        <ele>105.647</ele>
        <time>2026-07-26T10:01:57Z</time>
      </trkpt>
      <trkpt lat="59.92847511435162" lon="10.722757597070158">
        <ele>105.614</ele>
        <time>2026-07-26T10:01:58Z</time>
      </trkpt>
      <trkpt lat="59.928437393584559" lon="10.72274341658377">
        <ele>105.632</ele>
        <time>2026-07-26T10:01:59Z</time>
      </trkpt>
      <trkpt lat="59.928396063463524" lon="10.722755883809647">
        <ele>105.61</ele>
        <time>2026-07-26T10:02:00Z</time>
      </trkpt>
      <trkpt lat="59.928349744323825" lon="10.722788367696605">
        <ele>105.547</ele>
        <time>2026-07-26T10:02:01Z</time>
      </trkpt>
      <trkpt lat="59.928300864734631" lon="10.722838072812765">
        <ele>105.414</ele>
        <time>2026-07-26T10:02:02Z</time>
      </trkpt>
      <trkpt lat="59.928251074809062" lon="10.722898120943233">
        <ele>105.201</ele>
        <time>2026-07-26T10:02:03Z</time>
      </trkpt>
      <trkpt lat="59.92820079681325" lon="10.722967502582412">
        <ele>105.064</ele>
        <time>2026-07-26T10:02:04Z</time>
      </trkpt>
      <trkpt lat="59.928150545970887" lon="10.723042426101054">
        <ele>104.92</ele>
        <time>2026-07-26T10:02:05Z</time>
      </trkpt>
      <trkpt lat="59.928099110029642" lon="10.72311950978006">
        <ele>104.863</ele>
        <time>2026-07-26T10:02:06Z</time>
      </trkpt>
      <trkpt lat="59.928049169256518" lon="10.723200800141633">
        <ele>104.853</ele>
        <time>2026-07-26T10:02:07Z</time>
      </trkpt>
      <trkpt lat="59.927999713106608" lon="10.723282364980411">
        <ele>104.92</ele>
        <time>2026-07-26T10:02:08Z</time>
      </trkpt>
      <trkpt lat="59.927950577861743" lon="10.723362663758714">
        <ele>104.957</ele>
        <time>2026-07-26T10:02:09Z</time>
      </trkpt>
      <trkpt lat="59.927902191214166" lon="10.723442045174878">
        <ele>104.983</ele>
        <time>2026-07-26T10:02:10Z</time>
      </trkpt>
      <trkpt lat="59.927854266574215" lon="10.723518742650777">
        <ele>104.999</ele>
        <time>2026-07-26T10:02:11Z</time>
      </trkpt>
      <trkpt lat="59.92780720741608" lon="10.72359222168555">
        <ele>104.975</ele>
        <time>2026-07-26T10:02:12Z</time>
      </trkpt>
      <trkpt lat="59.927762055251797" lon="10.723662268373941">
        <ele>104.957</ele>
        <time>2026-07-26T10:02:13Z</time>
      </trkpt>
      <trkpt lat="59.927720104513945" lon="10.723727234730642">
        <ele>104.958</ele>
        <time>2026-07-26T10:02:14Z</time>
      </trkpt>
      <trkpt lat="59.927681208431828" lon="10.723785232929062">
        <ele>104.899</ele>
        <time>2026-07-26T10:02:15Z</time>
      </trkpt>
      <trkpt lat="59.927646860898001" lon="10.723837516688235">
        <ele>104.849</ele>
        <time>2026-07-26T10:02:16Z</time>
      </trkpt>
      <trkpt lat="59.927615424735819" lon="10.723881967023125">
        <ele>104.857</ele>
        <time>2026-07-26T10:02:17Z</time>
      </trkpt>
      <trkpt lat="59.927587256649822" lon="10.723922246368645">
        <ele>104.867</ele>
        <time>2026-07-26T10:02:18Z</time>
      </trkpt>
      <trkpt lat="59.927562321920036" lon="10.723949284902227">
        <ele>104.861</ele>
        <time>2026-07-26T10:02:19Z</time>
      </trkpt>
      <trkpt lat="59.927540858539821" lon="10.723953863723846">
        <ele>104.905</ele>
        <time>2026-07-26T10:02:20Z</time>
      </trkpt>
      <trkpt lat="59.927522282342125" lon="10.723936603602137">
        <ele>105.033</ele>
        <time>2026-07-26T10:02:21Z</time>
      </trkpt>
      <trkpt lat="59.927505252950226" lon="10.723902345266907">
        <ele>105.226</ele>
        <time>2026-07-26T10:02:22Z</time>
      </trkpt>
      <trkpt lat="59.927487147876541" lon="10.723849503165056">
        <ele>105.366</ele>
        <time>2026-07-26T10:02:23Z</time>
      </trkpt>
      <trkpt lat="59.927467996635229" lon="10.723780913436265">
        <ele>105.436</ele>
        <time>2026-07-26T10:02:24Z</time>
      </trkpt>
      <trkpt lat="59.92744815853321" lon="10.723703696651354">
        <ele>105.485</ele>
        <time>2026-07-26T10:02:25Z</time>
      </trkpt>
      <trkpt lat="59.92742885092359" lon="10.723619159311362">
        <ele>105.488</ele>
        <time>2026-07-26T10:02:26Z</time>
      </trkpt>
      <trkpt lat="59.927410911216327" lon="10.723530063970495">
        <ele>105.5</ele>
        <time>2026-07-26T10:02:27Z</time>
      </trkpt>
      <trkpt lat="59.927399317059105" lon="10.723437117079472">
        <ele>105.536</ele>
        <time>2026-07-26T10:02:28Z</time>
      </trkpt>
      <trkpt lat="59.927397383596286" lon="10.723346779871857">
        <ele>105.515</ele>
        <time>2026-07-26T10:02:29Z</time>
      </trkpt>
      <trkpt lat="59.927402636403059" lon="10.723258549904966">
        <ele>105.502</ele>
        <time>2026-07-26T10:02:30Z</time>
      </trkpt>
      <trkpt lat="59.927418003370391" lon="10.723176246871899">
        <ele>105.546</ele>
        <time>2026-07-26T10:02:31Z</time>
      </trkpt>
      <trkpt lat="59.927443629028986" lon="10.723097587338396">
        <ele>105.616</ele>
        <time>2026-07-26T10:02:32Z</time>
      </trkpt>
      <trkpt lat="59.927476181941763" lon="10.72302335878841">
        <ele>105.674</ele>
        <time>2026-07-26T10:02:33Z</time>
      </trkpt>
      <trkpt lat="59.927514313637388" lon="10.722952832416206">
        <ele>105.714</ele>
        <time>2026-07-26T10:02:34Z</time>
      </trkpt>
      <trkpt lat="59.927556743770438" lon="10.722884737797749">
        <ele>105.766</ele>
        <time>2026-07-26T10:02:35Z</time>
      </trkpt>
      <trkpt lat="59.927602327216412" lon="10.722818489453175">
        <ele>105.787</ele>
        <time>2026-07-26T10:02:36Z</time>
      </trkpt>
      <trkpt lat="59.92765129155493" lon="10.72275302105299">
        <ele>105.798</ele>
        <time>2026-07-26T10:02:37Z</time>
      </trkpt>
      <trkpt lat="59.927702240397501" lon="10.722688912531368">
        <ele>105.803</ele>
        <time>2026-07-26T10:02:38Z</time>
      </trkpt>
      <trkpt lat="59.927754086768658" lon="10.722625953392946">
        <ele>105.81</ele>
        <time>2026-07-26T10:02:39Z</time>
      </trkpt>
      <trkpt lat="59.927804502317812" lon="10.722564129808793">
        <ele>105.83</ele>
        <time>2026-07-26T10:02:40Z</time>
      </trkpt>
      <trkpt lat="59.927853045761246" lon="10.72250551427209">
        <ele>105.859</ele>
        <time>2026-07-26T10:02:41Z</time>
      </trkpt>
      <trkpt lat="59.927898715586416" lon="10.722450851288711">
        <ele>105.923</ele>
        <time>2026-07-26T10:02:42Z</time>
      </trkpt>
      <trkpt lat="59.927940868861867" lon="10.722401016366296">
        <ele>105.923</ele>
        <time>2026-07-26T10:02:43Z</time>
      </trkpt>
      <trkpt lat="59.927979324304737" lon="10.722354531828026">
        <ele>105.925</ele>
        <time>2026-07-26T10:02:44Z</time>
      </trkpt>
      <trkpt lat="59.928013371812483" lon="10.722312351350348">
        <ele>106.051</ele>
        <time>2026-07-26T10:02:45Z</time>
      </trkpt>
      <trkpt lat="59.928044109923896" lon="10.722274859491018">
        <ele>106.141</ele>
        <time>2026-07-26T10:02:46Z</time>
      </trkpt>
      <trkpt lat="59.928072197636197" lon="10.722238656375829">
        <ele>106.264</ele>
        <time>2026-07-26T10:02:47Z</time>
      </trkpt>
      <trkpt lat="59.928099672854721" lon="10.722202129012665">
        <ele>106.393</ele>
        <time>2026-07-26T10:02:48Z</time>
      </trkpt>
      <trkpt lat="59.92812769332339" lon="10.722166297804957">
        <ele>106.512</ele>
        <time>2026-07-26T10:02:49Z</time>
      </trkpt>
      <trkpt lat="59.928156285632674" lon="10.722130304348394">
        <ele>106.615</ele>
        <time>2026-07-26T10:02:50Z</time>
      </trkpt>
      <trkpt lat="59.928184783413784" lon="10.722094274891468">
        <ele>106.71</ele>
        <time>2026-07-26T10:02:51Z</time>
      </trkpt>
      <trkpt lat="59.928210736378588" lon="10.722062605537552">
        <ele>106.75</ele>
        <time>2026-07-26T10:02:52Z</time>
      </trkpt>
      <trkpt lat="59.928234048947012" lon="10.722036019211595">
        <ele>106.898</ele>
        <time>2026-07-26T10:02:53Z</time>
      </trkpt>
      <trkpt lat="59.928256789420402" lon="10.722017691309743">
        <ele>107.237</ele>
        <time>2026-07-26T10:02:54Z</time>
      </trkpt>
      <trkpt lat="59.928280211630522" lon="10.722010995606398">
        <ele>107.389</ele>
        <time>2026-07-26T10:02:55Z</time>
      </trkpt>
      <trkpt lat="59.928315201590834" lon="10.72203214192402">
        <ele>107.248</ele>
        <time>2026-07-26T10:02:56Z</time>
      </trkpt>
      <trkpt lat="59.928355615283564" lon="10.722078123993661">
        <ele>107.066</ele>
        <time>2026-07-26T10:02:57Z</time>
      </trkpt>
      <trkpt lat="59.928398795947665" lon="10.722144145537648">
        <ele>106.829</ele>
        <time>2026-07-26T10:02:58Z</time>
      </trkpt>
      <trkpt lat="59.928442910012372" lon="10.722223287059899">
        <ele>106.588</ele>
        <time>2026-07-26T10:02:59Z</time>
      </trkpt>
      <trkpt lat="59.928486855902356" lon="10.722308978286772">
        <ele>106.388</ele>
        <time>2026-07-26T10:03:00Z</time>
      </trkpt>
      <trkpt lat="59.928528944156241" lon="10.722400887022447">
        <ele>106.234</ele>
        <time>2026-07-26T10:03:01Z</time>
      </trkpt>
      <trkpt lat="59.92856968146036" lon="10.722495022512611">
        <ele>106.129</ele>
        <time>2026-07-26T10:03:02Z</time>
      </trkpt>
      <trkpt lat="59.928609512097005" lon="10.722582445715162">
        <ele>106.073</ele>
        <time>2026-07-26T10:03:03Z</time>
      </trkpt>
      <trkpt lat="59.928649236831497" lon="10.722653323917799">
        <ele>106.053</ele>
        <time>2026-07-26T10:03:04Z</time>
      </trkpt>
      <trkpt lat="59.928688975451998" lon="10.722699244542689">
        <ele>106.019</ele>
        <time>2026-07-26T10:03:05Z</time>
      </trkpt>
      <trkpt lat="59.928726936783498" lon="10.722724733873546">
        <ele>105.975</ele>
        <time>2026-07-26T10:03:06Z</time>
      </trkpt>
      <trkpt lat="59.928761563130529" lon="10.7227302700545">
        <ele>105.929</ele>
        <time>2026-07-26T10:03:07Z</time>
      </trkpt>
      <trkpt lat="59.928794302331958" lon="10.722719735885931">
        <ele>105.969</ele>
        <time>2026-07-26T10:03:08Z</time>
      </trkpt>
      <trkpt lat="59.92882511766198" lon="10.72269609412394">
        <ele>106.048</ele>
        <time>2026-07-26T10:03:09Z</time>
      </trkpt>
      <trkpt lat="59.928851786137088" lon="10.722665820096111">
        <ele>106.108</ele>
        <time>2026-07-26T10:03:10Z</time>
      </trkpt>
      <trkpt lat="59.928872793943505" lon="10.722633901878575">
        <ele>106.155</ele>
        <time>2026-07-26T10:03:11Z</time>
      </trkpt>
      <trkpt lat="59.928883149122505" lon="10.722606849908049">
        <ele>106.308</ele>
        <time>2026-07-26T10:03:53Z</time>
      </trkpt>
      <trkpt lat="59.928897403320505" lon="10.722568252217755">
        <ele>106.54</ele>
        <time>2026-07-26T10:03:55Z</time>
      </trkpt>
      <trkpt lat="59.928914791064791" lon="10.722522015236597">
        <ele>106.787</ele>
        <time>2026-07-26T10:03:56Z</time>
      </trkpt>
      <trkpt lat="59.928936842478166" lon="10.722467884126299">
        <ele>106.996</ele>
        <time>2026-07-26T10:03:57Z</time>
      </trkpt>
      <trkpt lat="59.928963943067714" lon="10.722406572689286">
        <ele>107.154</ele>
        <time>2026-07-26T10:03:58Z</time>
      </trkpt>
      <trkpt lat="59.928994306997922" lon="10.722341862225973">
        <ele>107.261</ele>
        <time>2026-07-26T10:03:59Z</time>
      </trkpt>
      <trkpt lat="59.929026175283759" lon="10.722277877024007">
        <ele>107.377</ele>
        <time>2026-07-26T10:04:00Z</time>
      </trkpt>
      <trkpt lat="59.929058067427299" lon="10.722219991032096">
        <ele>107.49</ele>
        <time>2026-07-26T10:04:01Z</time>
      </trkpt>
      <trkpt lat="59.92908978207408" lon="10.722167239959205">
        <ele>107.588</ele>
        <time>2026-07-26T10:04:02Z</time>
      </trkpt>
      <trkpt lat="59.929122977929445" lon="10.722123781824074">
        <ele>107.655</ele>
        <time>2026-07-26T10:04:03Z</time>
      </trkpt>
      <trkpt lat="59.929156317160491" lon="10.722092669189319">
        <ele>107.664</ele>
        <time>2026-07-26T10:04:04Z</time>
      </trkpt>
      <trkpt lat="59.929188526856102" lon="10.722080668783702">
        <ele>107.638</ele>
        <time>2026-07-26T10:04:05Z</time>
      </trkpt>
      <trkpt lat="59.929218976596196" lon="10.722087149241284">
        <ele>107.642</ele>
        <time>2026-07-26T10:04:06Z</time>
      </trkpt>
      <trkpt lat="59.929247847670766" lon="10.72211737439663">
        <ele>107.648</ele>
        <time>2026-07-26T10:04:07Z</time>
      </trkpt>
      <trkpt lat="59.929276250998967" lon="10.722166256837557">
        <ele>107.632</ele>
        <time>2026-07-26T10:04:08Z</time>
      </trkpt>
      <trkpt lat="59.92930610387063" lon="10.72223085701337">
        <ele>107.457</ele>
        <time>2026-07-26T10:04:09Z</time>
      </trkpt>
      <trkpt lat="59.929338101990986" lon="10.722307579436903">
        <ele>107.276</ele>
        <time>2026-07-26T10:04:10Z</time>
      </trkpt>
      <trkpt lat="59.929371490941506" lon="10.722394163882871">
        <ele>107.14</ele>
        <time>2026-07-26T10:04:11Z</time>
      </trkpt>
      <trkpt lat="59.929407149770753" lon="10.722491159491723">
        <ele>106.974</ele>
        <time>2026-07-26T10:04:12Z</time>
      </trkpt>
      <trkpt lat="59.929444462148048" lon="10.722595609048829">
        <ele>106.836</ele>
        <time>2026-07-26T10:04:13Z</time>
      </trkpt>
      <trkpt lat="59.929483032095959" lon="10.722705808412">
        <ele>106.744</ele>
        <time>2026-07-26T10:04:14Z</time>
      </trkpt>
      <trkpt lat="59.929522132586911" lon="10.722818978977296">
        <ele>106.669</ele>
        <time>2026-07-26T10:04:15Z</time>
      </trkpt>
      <trkpt lat="59.929562413046277" lon="10.722933973031425">
        <ele>106.529</ele>
        <time>2026-07-26T10:04:16Z</time>
      </trkpt>
      <trkpt lat="59.92960380279149" lon="10.723049350967969">
        <ele>106.449</ele>
        <time>2026-07-26T10:04:17Z</time>
      </trkpt>
      <trkpt lat="59.929645004993226" lon="10.723162696498518">
        <ele>106.36</ele>
        <time>2026-07-26T10:04:18Z</time>
      </trkpt>
      <trkpt lat="59.929685143857171" lon="10.723272973845988">
        <ele>106.314</ele>
        <time>2026-07-26T10:04:19Z</time>
      </trkpt>
      <trkpt lat="59.92972448611831" lon="10.723379532766915">
        <ele>106.302</ele>
        <time>2026-07-26T10:04:20Z</time>
      </trkpt>
      <trkpt lat="59.929763197095255" lon="10.723481794990192">
        <ele>106.303</ele>
        <time>2026-07-26T10:04:21Z</time>
      </trkpt>
      <trkpt lat="59.929800924575808" lon="10.7235799515257">
        <ele>106.319</ele>
        <time>2026-07-26T10:04:22Z</time>
      </trkpt>
      <trkpt lat="59.929837336151053" lon="10.723673057228815">
        <ele>106.348</ele>
        <time>2026-07-26T10:04:23Z</time>
      </trkpt>
      <trkpt lat="59.929872153446581" lon="10.723759378625164">
        <ele>106.37</ele>
        <time>2026-07-26T10:04:24Z</time>
      </trkpt>
      <trkpt lat="59.929904921336885" lon="10.723837889460203">
        <ele>106.379</ele>
        <time>2026-07-26T10:04:25Z</time>
      </trkpt>
      <trkpt lat="59.929937224742453" lon="10.723903922482391">
        <ele>106.373</ele>
        <time>2026-07-26T10:04:26Z</time>
      </trkpt>
      <trkpt lat="59.929971505101719" lon="10.723952451249311">
        <ele>106.418</ele>
        <time>2026-07-26T10:04:27Z</time>
      </trkpt>
      <trkpt lat="59.930009452291088" lon="10.723979164407078">
        <ele>106.462</ele>
        <time>2026-07-26T10:04:28Z</time>
      </trkpt>
      <trkpt lat="59.930049443604133" lon="10.723979648699192">
        <ele>106.492</ele>
        <time>2026-07-26T10:04:29Z</time>
      </trkpt>
      <trkpt lat="59.930090246123839" lon="10.723955610724184">
        <ele>106.587</ele>
        <time>2026-07-26T10:04:30Z</time>
      </trkpt>
      <trkpt lat="59.930131313975608" lon="10.723910286556027">
        <ele>106.659</ele>
        <time>2026-07-26T10:04:31Z</time>
      </trkpt>
      <trkpt lat="59.93017230413821" lon="10.723848391809398">
        <ele>106.752</ele>
        <time>2026-07-26T10:04:32Z</time>
      </trkpt>
      <trkpt lat="59.930213028887458" lon="10.723775751269324">
        <ele>106.845</ele>
        <time>2026-07-26T10:04:33Z</time>
      </trkpt>
      <trkpt lat="59.930253928961896" lon="10.72369680118568">
        <ele>106.907</ele>
        <time>2026-07-26T10:04:34Z</time>
      </trkpt>
      <trkpt lat="59.930294752217733" lon="10.723612808928465">
        <ele>106.998</ele>
        <time>2026-07-26T10:04:35Z</time>
      </trkpt>
      <trkpt lat="59.930335402556047" lon="10.723524654204363">
        <ele>107.062</ele>
        <time>2026-07-26T10:04:36Z</time>
      </trkpt>
      <trkpt lat="59.93037665290457" lon="10.723435025051469">
        <ele>107.11</ele>
        <time>2026-07-26T10:04:37Z</time>
      </trkpt>
      <trkpt lat="59.930417818072407" lon="10.723346266175833">
        <ele>107.175</ele>
        <time>2026-07-26T10:04:38Z</time>
      </trkpt>
      <trkpt lat="59.930458167174372" lon="10.723257752443361">
        <ele>107.222</ele>
        <time>2026-07-26T10:04:39Z</time>
      </trkpt>
      <trkpt lat="59.930498427670528" lon="10.723170986341348">
        <ele>107.194</ele>
        <time>2026-07-26T10:04:40Z</time>
      </trkpt>
      <trkpt lat="59.930537408014011" lon="10.723087383801104">
        <ele>107.13</ele>
        <time>2026-07-26T10:04:41Z</time>
      </trkpt>
      <trkpt lat="59.930573841046886" lon="10.72300820196177">
        <ele>107.061</ele>
        <time>2026-07-26T10:04:43Z</time>
      </trkpt>
      <trkpt lat="59.930606501297206" lon="10.722938335715694">
        <ele>106.979</ele>
        <time>2026-07-26T10:04:44Z</time>
      </trkpt>
      <trkpt lat="59.930634510144586" lon="10.72288354273455">
        <ele>106.895</ele>
        <time>2026-07-26T10:04:45Z</time>
      </trkpt>
      <trkpt lat="59.930656714362513" lon="10.722843566243414">
        <ele>106.822</ele>
        <time>2026-07-26T10:04:46Z</time>
      </trkpt>
      <trkpt lat="59.930673692192663" lon="10.722816133310317">
        <ele>106.823</ele>
        <time>2026-07-26T10:04:47Z</time>
      </trkpt>
      <trkpt lat="59.930688181631645" lon="10.722798955612616">
        <ele>106.885</ele>
        <time>2026-07-26T10:04:48Z</time>
      </trkpt>
      <trkpt lat="59.930704002515881" lon="10.722784927860493">
        <ele>106.977</ele>
        <time>2026-07-26T10:04:49Z</time>
      </trkpt>
      <trkpt lat="59.930721552912559" lon="10.722775114942594">
        <ele>106.998</ele>
        <time>2026-07-26T10:04:50Z</time>
      </trkpt>
      <trkpt lat="59.930741741501329" lon="10.722778838670088">
        <ele>107.078</ele>
        <time>2026-07-26T10:04:51Z</time>
      </trkpt>
      <trkpt lat="59.930764578424728" lon="10.72280136490723">
        <ele>107.132</ele>
        <time>2026-07-26T10:04:52Z</time>
      </trkpt>
      <trkpt lat="59.9307893529731" lon="10.72284324708443">
        <ele>107.165</ele>
        <time>2026-07-26T10:04:53Z</time>
      </trkpt>
      <trkpt lat="59.930814342457232" lon="10.722901592864812">
        <ele>107.101</ele>
        <time>2026-07-26T10:04:54Z</time>
      </trkpt>
      <trkpt lat="59.93083939245701" lon="10.722971297653867">
        <ele>107.095</ele>
        <time>2026-07-26T10:04:55Z</time>
      </trkpt>
      <trkpt lat="59.930863882780955" lon="10.723049901227887">
        <ele>107.085</ele>
        <time>2026-07-26T10:04:56Z</time>
      </trkpt>
      <trkpt lat="59.930888872766637" lon="10.72313478035502">
        <ele>107.088</ele>
        <time>2026-07-26T10:04:57Z</time>
      </trkpt>
      <trkpt lat="59.930913676920746" lon="10.723222019726288">
        <ele>106.996</ele>
        <time>2026-07-26T10:04:58Z</time>
      </trkpt>
      <trkpt lat="59.930938652077202" lon="10.723310506423477">
        <ele>106.927</ele>
        <time>2026-07-26T10:04:59Z</time>
      </trkpt>
      <trkpt lat="59.930963949129207" lon="10.723400507894723">
        <ele>106.901</ele>
        <time>2026-07-26T10:05:00Z</time>
      </trkpt>
      <trkpt lat="59.930987895242431" lon="10.723491243564988">
        <ele>106.884</ele>
        <time>2026-07-26T10:05:01Z</time>
      </trkpt>
      <trkpt lat="59.931011856593237" lon="10.723582565146113">
        <ele>106.911</ele>
        <time>2026-07-26T10:05:02Z</time>
      </trkpt>
      <trkpt lat="59.931036958038959" lon="10.723672377725801">
        <ele>106.998</ele>
        <time>2026-07-26T10:05:03Z</time>
      </trkpt>
      <trkpt lat="59.931061658414826" lon="10.723757813437356">
        <ele>107.091</ele>
        <time>2026-07-26T10:05:04Z</time>
      </trkpt>
      <trkpt lat="59.931085924040701" lon="10.723835293699812">
        <ele>107.151</ele>
        <time>2026-07-26T10:05:05Z</time>
      </trkpt>
      <trkpt lat="59.931112230774495" lon="10.723898432515137">
        <ele>107.235</ele>
        <time>2026-07-26T10:05:06Z</time>
      </trkpt>
      <trkpt lat="59.931142180128248" lon="10.723941884282214">
        <ele>107.332</ele>
        <time>2026-07-26T10:05:07Z</time>
      </trkpt>
      <trkpt lat="59.931174521812075" lon="10.723964481251059">
        <ele>107.402</ele>
        <time>2026-07-26T10:05:08Z</time>
      </trkpt>
      <trkpt lat="59.931207536478873" lon="10.723967027852517">
        <ele>107.444</ele>
        <time>2026-07-26T10:05:09Z</time>
      </trkpt>
      <trkpt lat="59.931240910750283" lon="10.723950932519953">
        <ele>107.47</ele>
        <time>2026-07-26T10:05:10Z</time>
      </trkpt>
      <trkpt lat="59.931274952559619" lon="10.723919665386399">
        <ele>107.485</ele>
        <time>2026-07-26T10:05:11Z</time>
      </trkpt>
      <trkpt lat="59.931309361338407" lon="10.723877159903386">
        <ele>107.473</ele>
        <time>2026-07-26T10:05:12Z</time>
      </trkpt>
      <trkpt lat="59.93134400007223" lon="10.723825153596669">
        <ele>107.488</ele>
        <time>2026-07-26T10:05:13Z</time>
      </trkpt>
      <trkpt lat="59.93137871659308" lon="10.723766631277291">
        <ele>107.469</ele>
        <time>2026-07-26T10:05:14Z</time>
      </trkpt>
      <trkpt lat="59.931413105036022" lon="10.723704032590254">
        <ele>107.477</ele>
        <time>2026-07-26T10:05:15Z</time>
      </trkpt>
      <trkpt lat="59.931447553714669" lon="10.723638961980548">
        <ele>107.498</ele>
        <time>2026-07-26T10:05:16Z</time>
      </trkpt>
      <trkpt lat="59.931481653155949" lon="10.723572890108821">
        <ele>107.506</ele>
        <time>2026-07-26T10:05:17Z</time>
      </trkpt>
      <trkpt lat="59.931516996757594" lon="10.723507402616272">
        <ele>107.502</ele>
        <time>2026-07-26T10:05:18Z</time>
      </trkpt>
      <trkpt lat="59.931552243050142" lon="10.723442503666826">
        <ele>107.519</ele>
        <time>2026-07-26T10:05:19Z</time>
      </trkpt>
      <trkpt lat="59.931586061776066" lon="10.723378488180966">
        <ele>107.536</ele>
        <time>2026-07-26T10:05:20Z</time>
      </trkpt>
      <trkpt lat="59.931618225080456" lon="10.7233173740683">
        <ele>107.556</ele>
        <time>2026-07-26T10:05:21Z</time>
      </trkpt>
      <trkpt lat="59.931648680333836" lon="10.723259734990149">
        <ele>107.566</ele>
        <time>2026-07-26T10:05:22Z</time>
      </trkpt>
      <trkpt lat="59.93167703988351" lon="10.723206272227838">
        <ele>107.574</ele>
        <time>2026-07-26T10:05:23Z</time>
      </trkpt>
      <trkpt lat="59.93170361452168" lon="10.723156202434975">
        <ele>107.53</ele>
        <time>2026-07-26T10:05:24Z</time>
      </trkpt>
      <trkpt lat="59.931728048435346" lon="10.723110022881318">
        <ele>107.503</ele>
        <time>2026-07-26T10:05:25Z</time>
      </trkpt>
      <trkpt lat="59.931750055672801" lon="10.723069677260968">
        <ele>107.496</ele>
        <time>2026-07-26T10:05:26Z</time>
      </trkpt>
      <trkpt lat="59.93176841086138" lon="10.723037047820378">
        <ele>107.49</ele>
        <time>2026-07-26T10:05:27Z</time>
      </trkpt>
      <trkpt lat="59.931786680573211" lon="10.723012041284953">
        <ele>107.534</ele>
        <time>2026-07-26T10:05:46Z</time>
      </trkpt>
      <trkpt lat="59.931803097994511" lon="10.722992470201739">
        <ele>107.607</ele>
        <time>2026-07-26T10:05:47Z</time>
      </trkpt>
      <trkpt lat="59.931820833076472" lon="10.722971705882594">
        <ele>107.709</ele>
        <time>2026-07-26T10:05:48Z</time>
      </trkpt>
      <trkpt lat="59.931842644334608" lon="10.722943051002581">
        <ele>107.774</ele>
        <time>2026-07-26T10:05:49Z</time>
      </trkpt>
      <trkpt lat="59.93186996643427" lon="10.722904593243802">
        <ele>107.838</ele>
        <time>2026-07-26T10:05:50Z</time>
      </trkpt>
      <trkpt lat="59.931903263647385" lon="10.722856997593018">
        <ele>107.819</ele>
        <time>2026-07-26T10:05:51Z</time>
      </trkpt>
      <trkpt lat="59.931940575806202" lon="10.722801932575967">
        <ele>107.786</ele>
        <time>2026-07-26T10:05:52Z</time>
      </trkpt>
      <trkpt lat="59.931980814256981" lon="10.722740616168046">
        <ele>107.814</ele>
        <time>2026-07-26T10:05:53Z</time>
      </trkpt>
      <trkpt lat="59.932023374637353" lon="10.7226743137757">
        <ele>107.815</ele>
        <time>2026-07-26T10:05:54Z</time>
      </trkpt>
      <trkpt lat="59.932066969475862" lon="10.722604969561312">
        <ele>107.744</ele>
        <time>2026-07-26T10:05:55Z</time>
      </trkpt>
      <trkpt lat="59.93211027375493" lon="10.722534337054325">
        <ele>107.707</ele>
        <time>2026-07-26T10:05:56Z</time>
      </trkpt>
      <trkpt lat="59.932152123928333" lon="10.722463826161059">
        <ele>107.744</ele>
        <time>2026-07-26T10:05:57Z</time>
      </trkpt>
      <trkpt lat="59.932191822667733" lon="10.722393567310203">
        <ele>107.664</ele>
        <time>2026-07-26T10:05:58Z</time>
      </trkpt>
      <trkpt lat="59.932227223407239" lon="10.722321067948776">
        <ele>107.551</ele>
        <time>2026-07-26T10:05:59Z</time>
      </trkpt>
      <trkpt lat="59.932258967750101" lon="10.7222484974221">
        <ele>107.469</ele>
        <time>2026-07-26T10:06:00Z</time>
      </trkpt>
      <trkpt lat="59.932290383873777" lon="10.722173841190743">
        <ele>107.39</ele>
        <time>2026-07-26T10:06:01Z</time>
      </trkpt>
      <trkpt lat="59.932321961850093" lon="10.722098349921261">
        <ele>107.322</ele>
        <time>2026-07-26T10:06:02Z</time>
      </trkpt>
      <trkpt lat="59.932354228667919" lon="10.722021243047314">
        <ele>107.24</ele>
        <time>2026-07-26T10:06:03Z</time>
      </trkpt>
      <trkpt lat="59.93238627318339" lon="10.721942349280262">
        <ele>107.19</ele>
        <time>2026-07-26T10:06:04Z</time>
      </trkpt>
      <trkpt lat="59.932418272997054" lon="10.721861972548362">
        <ele>107.149</ele>
        <time>2026-07-26T10:06:05Z</time>
      </trkpt>
      <trkpt lat="59.932450812285346" lon="10.721780572243985">
        <ele>107.116</ele>
        <time>2026-07-26T10:06:06Z</time>
      </trkpt>
      <trkpt lat="59.932482959405512" lon="10.721698419273638">
        <ele>107.09</ele>
        <time>2026-07-26T10:06:07Z</time>
      </trkpt>
      <trkpt lat="59.932513316335708" lon="10.721615897240653">
        <ele>107.056</ele>
        <time>2026-07-26T10:06:08Z</time>
      </trkpt>
      <trkpt lat="59.932540939099319" lon="10.721533582330835">
        <ele>107.026</ele>
        <time>2026-07-26T10:06:09Z</time>
      </trkpt>
      <trkpt lat="59.932563267063671" lon="10.721450916926525">
        <ele>106.932</ele>
        <time>2026-07-26T10:06:10Z</time>
      </trkpt>
      <trkpt lat="59.932576450821585" lon="10.721368737158354">
        <ele>106.827</ele>
        <time>2026-07-26T10:06:11Z</time>
      </trkpt>
      <trkpt lat="59.932577622164828" lon="10.721287893926863">
        <ele>106.715</ele>
        <time>2026-07-26T10:06:12Z</time>
      </trkpt>
      <trkpt lat="59.932567542476406" lon="10.721210974862556">
        <ele>106.608</ele>
        <time>2026-07-26T10:06:13Z</time>
      </trkpt>
      <trkpt lat="59.932548508089766" lon="10.721139957273991">
        <ele>106.504</ele>
        <time>2026-07-26T10:06:14Z</time>
      </trkpt>
      <trkpt lat="59.932522875743295" lon="10.72107490447101">
        <ele>106.435</ele>
        <time>2026-07-26T10:06:15Z</time>
      </trkpt>
      <trkpt lat="59.932492575966947" lon="10.721015609245987">
        <ele>106.377</ele>
        <time>2026-07-26T10:06:16Z</time>
      </trkpt>
      <trkpt lat="59.932459548309886" lon="10.720960126794278">
        <ele>106.297</ele>
        <time>2026-07-26T10:06:17Z</time>
      </trkpt>
      <trkpt lat="59.932424247109815" lon="10.720906077498888">
        <ele>106.235</ele>
        <time>2026-07-26T10:06:18Z</time>
      </trkpt>
      <trkpt lat="59.932387324575473" lon="10.720851300231431">
        <ele>106.296</ele>
        <time>2026-07-26T10:06:19Z</time>
      </trkpt>
      <trkpt lat="59.932349886828561" lon="10.72079606440076">
        <ele>106.347</ele>
        <time>2026-07-26T10:06:20Z</time>
      </trkpt>
      <trkpt lat="59.93231343865871" lon="10.720740686354073">
        <ele>106.389</ele>
        <time>2026-07-26T10:06:21Z</time>
      </trkpt>
      <trkpt lat="59.932278494680894" lon="10.720685847970829">
        <ele>106.443</ele>
        <time>2026-07-26T10:06:22Z</time>
      </trkpt>
      <trkpt lat="59.932245612434301" lon="10.720632941861664">
        <ele>106.467</ele>
        <time>2026-07-26T10:06:23Z</time>
      </trkpt>
      <trkpt lat="59.93221326169553" lon="10.720581266918398">
        <ele>106.466</ele>
        <time>2026-07-26T10:06:24Z</time>
      </trkpt>
      <trkpt lat="59.932182005039643" lon="10.720529735269762">
        <ele>106.443</ele>
        <time>2026-07-26T10:06:25Z</time>
      </trkpt>
      <trkpt lat="59.932150639406558" lon="10.720474811360527">
        <ele>106.454</ele>
        <time>2026-07-26T10:06:26Z</time>
      </trkpt>
      <trkpt lat="59.932119159217898" lon="10.720416677669972">
        <ele>106.429</ele>
        <time>2026-07-26T10:06:27Z</time>
      </trkpt>
      <trkpt lat="59.932088470012488" lon="10.72035515942957">
        <ele>106.356</ele>
        <time>2026-07-26T10:06:28Z</time>
      </trkpt>
      <trkpt lat="59.932058966875118" lon="10.72029088756293">
        <ele>106.256</ele>
        <time>2026-07-26T10:06:29Z</time>
      </trkpt>
      <trkpt lat="59.93202964595622" lon="10.720224990477989">
        <ele>106.102</ele>
        <time>2026-07-26T10:06:30Z</time>
      </trkpt>
      <trkpt lat="59.932000138584975" lon="10.72015734326745">
        <ele>105.929</ele>
        <time>2026-07-26T10:06:31Z</time>
      </trkpt>
      <trkpt lat="59.931970645990603" lon="10.720087098492217">
        <ele>105.746</ele>
        <time>2026-07-26T10:06:32Z</time>
      </trkpt>
      <trkpt lat="59.931940834086419" lon="10.720014542735418">
        <ele>105.56</ele>
        <time>2026-07-26T10:06:33Z</time>
      </trkpt>
      <trkpt lat="59.931910737810455" lon="10.719942183957896">
        <ele>105.365</ele>
        <time>2026-07-26T10:06:34Z</time>
      </trkpt>
      <trkpt lat="59.931881209197932" lon="10.719870422435134">
        <ele>105.163</ele>
        <time>2026-07-26T10:06:35Z</time>
      </trkpt>
      <trkpt lat="59.93185270400388" lon="10.719797860923405">
        <ele>104.959</ele>
        <time>2026-07-26T10:06:36Z</time>
      </trkpt>
      <trkpt lat="59.931825219872792" lon="10.719726191425861">
        <ele>104.761</ele>
        <time>2026-07-26T10:06:37Z</time>
      </trkpt>
      <trkpt lat="59.931797977363566" lon="10.719657858782419">
        <ele>104.574</ele>
        <time>2026-07-26T10:06:38Z</time>
      </trkpt>
      <trkpt lat="59.931769751599745" lon="10.719594952798317">
        <ele>104.39</ele>
        <time>2026-07-26T10:06:39Z</time>
      </trkpt>
      <trkpt lat="59.931737986521689" lon="10.719544966741644">
        <ele>104.185</ele>
        <time>2026-07-26T10:06:40Z</time>
      </trkpt>
      <trkpt lat="59.931703295325512" lon="10.719506436645547">
        <ele>103.998</ele>
        <time>2026-07-26T10:06:41Z</time>
      </trkpt>
      <trkpt lat="59.93166597856321" lon="10.71949189820719">
        <ele>103.864</ele>
        <time>2026-07-26T10:06:42Z</time>
      </trkpt>
      <trkpt lat="59.931626521805413" lon="10.719499633952182">
        <ele>103.775</ele>
        <time>2026-07-26T10:06:43Z</time>
      </trkpt>
      <trkpt lat="59.931586128536473" lon="10.719527603087295">
        <ele>103.705</ele>
        <time>2026-07-26T10:06:44Z</time>
      </trkpt>
      <trkpt lat="59.931545738407763" lon="10.719572975342743">
        <ele>103.646</ele>
        <time>2026-07-26T10:06:45Z</time>
      </trkpt>
      <trkpt lat="59.931504742372752" lon="10.71963057456302">
        <ele>103.622</ele>
        <time>2026-07-26T10:06:46Z</time>
      </trkpt>
      <trkpt lat="59.931464447224677" lon="10.71969556080666">
        <ele>103.614</ele>
        <time>2026-07-26T10:06:47Z</time>
      </trkpt>
      <trkpt lat="59.931424624086233" lon="10.719766235205356">
        <ele>103.622</ele>
        <time>2026-07-26T10:06:48Z</time>
      </trkpt>
      <trkpt lat="59.931384692347223" lon="10.719840855760689">
        <ele>103.634</ele>
        <time>2026-07-26T10:06:49Z</time>
      </trkpt>
      <trkpt lat="59.931344182325113" lon="10.719917478048702">
        <ele>103.652</ele>
        <time>2026-07-26T10:06:50Z</time>
      </trkpt>
      <trkpt lat="59.931304284244504" lon="10.719995097423322">
        <ele>103.636</ele>
        <time>2026-07-26T10:06:51Z</time>
      </trkpt>
      <trkpt lat="59.931265042793882" lon="10.720072179204974">
        <ele>103.678</ele>
        <time>2026-07-26T10:06:52Z</time>
      </trkpt>
      <trkpt lat="59.931229279161109" lon="10.720147644574672">
        <ele>103.74</ele>
        <time>2026-07-26T10:06:53Z</time>
      </trkpt>
      <trkpt lat="59.931197567915291" lon="10.72021928760048">
        <ele>103.812</ele>
        <time>2026-07-26T10:06:54Z</time>
      </trkpt>
      <trkpt lat="59.931168348865533" lon="10.720287792421718">
        <ele>103.928</ele>
        <time>2026-07-26T10:06:55Z</time>
      </trkpt>
      <trkpt lat="59.931139090220938" lon="10.720352297575031">
        <ele>104.033</ele>
        <time>2026-07-26T10:06:56Z</time>
      </trkpt>
      <trkpt lat="59.931109394070972" lon="10.720413813598615">
        <ele>104.1</ele>
        <time>2026-07-26T10:06:57Z</time>
      </trkpt>
      <trkpt lat="59.931081323432196" lon="10.720473886472863">
        <ele>104.123</ele>
        <time>2026-07-26T10:06:58Z</time>
      </trkpt>
      <trkpt lat="59.931054648384283" lon="10.720532783149734">
        <ele>104.141</ele>
        <time>2026-07-26T10:06:59Z</time>
      </trkpt>
      <trkpt lat="59.931029315234383" lon="10.720588959282848">
        <ele>104.126</ele>
        <time>2026-07-26T10:07:00Z</time>
      </trkpt>
      <trkpt lat="59.931006298628439" lon="10.720643073177996">
        <ele>104.108</ele>
        <time>2026-07-26T10:07:01Z</time>
      </trkpt>
      <trkpt lat="59.930986378278362" lon="10.720697663360193">
        <ele>104.095</ele>
        <time>2026-07-26T10:07:02Z</time>
      </trkpt>
      <trkpt lat="59.930969441725381" lon="10.720751492609159">
        <ele>104.059</ele>
        <time>2026-07-26T10:07:03Z</time>
      </trkpt>
      <trkpt lat="59.930955682694332" lon="10.720803340261666">
        <ele>104.053</ele>
        <time>2026-07-26T10:07:04Z</time>
      </trkpt>
      <trkpt lat="59.93094539712682" lon="10.720856491118813">
        <ele>104.089</ele>
        <time>2026-07-26T10:07:05Z</time>
      </trkpt>
      <trkpt lat="59.93093974509415" lon="10.720913742238746">
        <ele>104.131</ele>
        <time>2026-07-26T10:07:06Z</time>
      </trkpt>
      <trkpt lat="59.930938690271574" lon="10.720972184811103">
        <ele>104.246</ele>
        <time>2026-07-26T10:07:07Z</time>
      </trkpt>
      <trkpt lat="59.930940438188955" lon="10.721029482426928">
        <ele>104.359</ele>
        <time>2026-07-26T10:07:08Z</time>
      </trkpt>
      <trkpt lat="59.930943951204313" lon="10.721085770183766">
        <ele>104.484</ele>
        <time>2026-07-26T10:07:09Z</time>
      </trkpt>
      <trkpt lat="59.930946531713602" lon="10.721124309715325">
        <ele>104.65</ele>
        <time>2026-07-26T10:07:10Z</time>
      </trkpt>
      <trkpt lat="59.930947967602997" lon="10.721144143922285">
        <ele>104.762</ele>
        <time>2026-07-26T10:07:12Z</time>
      </trkpt>
      <trkpt lat="59.930948552119027" lon="10.721148893656137">
        <ele>104.859</ele>
        <time>2026-07-26T10:07:14Z</time>
      </trkpt>
      <trkpt lat="59.930945841162014" lon="10.721154184990578">
        <ele>104.857</ele>
        <time>2026-07-26T10:07:28Z</time>
      </trkpt>
      <trkpt lat="59.930942678757795" lon="10.721159365170188">
        <ele>104.803</ele>
        <time>2026-07-26T10:07:29Z</time>
      </trkpt>
      <trkpt lat="59.9309417335215" lon="10.721175544831873">
        <ele>104.815</ele>
        <time>2026-07-26T10:07:30Z</time>
      </trkpt>
      <trkpt lat="59.930947745735409" lon="10.721202241592941">
        <ele>104.9</ele>
        <time>2026-07-26T10:07:31Z</time>
      </trkpt>
      <trkpt lat="59.930961824150941" lon="10.721240488615219">
        <ele>104.971</ele>
        <time>2026-07-26T10:07:32Z</time>
      </trkpt>
      <trkpt lat="59.930983185407761" lon="10.721289949262129">
        <ele>105.033</ele>
        <time>2026-07-26T10:07:33Z</time>
      </trkpt>
      <trkpt lat="59.931009742205426" lon="10.721347559159042">
        <ele>105.079</ele>
        <time>2026-07-26T10:07:34Z</time>
      </trkpt>
      <trkpt lat="59.931039219127733" lon="10.721410784926478">
        <ele>105.149</ele>
        <time>2026-07-26T10:07:35Z</time>
      </trkpt>
      <trkpt lat="59.931071154721707" lon="10.721479649430616">
        <ele>105.238</ele>
        <time>2026-07-26T10:07:36Z</time>
      </trkpt>
      <trkpt lat="59.931105514954488" lon="10.721553834705746">
        <ele>105.315</ele>
        <time>2026-07-26T10:07:37Z</time>
      </trkpt>
      <trkpt lat="59.931141598167059" lon="10.721632270604541">
        <ele>105.407</ele>
        <time>2026-07-26T10:07:38Z</time>
      </trkpt>
      <trkpt lat="59.93117797933612" lon="10.721712882071815">
        <ele>105.506</ele>
        <time>2026-07-26T10:07:39Z</time>
      </trkpt>
      <trkpt lat="59.931212614427508" lon="10.7217928659711">
        <ele>105.563</ele>
        <time>2026-07-26T10:07:40Z</time>
      </trkpt>
      <trkpt lat="59.931242949525206" lon="10.721871212511758">
        <ele>105.611</ele>
        <time>2026-07-26T10:07:41Z</time>
      </trkpt>
      <trkpt lat="59.9312655683961" lon="10.721946352518598">
        <ele>105.69</ele>
        <time>2026-07-26T10:07:42Z</time>
      </trkpt>
      <trkpt lat="59.931278689852654" lon="10.722016047375215">
        <ele>105.825</ele>
        <time>2026-07-26T10:07:43Z</time>
      </trkpt>
      <trkpt lat="59.931281493159851" lon="10.722080198213146">
        <ele>105.926</ele>
        <time>2026-07-26T10:07:44Z</time>
      </trkpt>
      <trkpt lat="59.931273555581257" lon="10.722140544012898">
        <ele>106.007</ele>
        <time>2026-07-26T10:07:45Z</time>
      </trkpt>
      <trkpt lat="59.931255041161634" lon="10.722197249036133">
        <ele>106.076</ele>
        <time>2026-07-26T10:07:46Z</time>
      </trkpt>
      <trkpt lat="59.931227084748869" lon="10.722251617208231">
        <ele>106.139</ele>
        <time>2026-07-26T10:07:47Z</time>
      </trkpt>
      <trkpt lat="59.931191600289992" lon="10.722305374400184">
        <ele>106.17</ele>
        <time>2026-07-26T10:07:48Z</time>
      </trkpt>
      <trkpt lat="59.931150571359922" lon="10.722358661074049">
        <ele>106.194</ele>
        <time>2026-07-26T10:07:49Z</time>
      </trkpt>
      <trkpt lat="59.93110644281078" lon="10.722410101523666">
        <ele>106.232</ele>
        <time>2026-07-26T10:07:50Z</time>
      </trkpt>
      <trkpt lat="59.93106022320066" lon="10.722461353536875">
        <ele>106.259</ele>
        <time>2026-07-26T10:07:51Z</time>
      </trkpt>
      <trkpt lat="59.931011537156628" lon="10.722513221081366">
        <ele>106.25</ele>
        <time>2026-07-26T10:07:52Z</time>
      </trkpt>
      <trkpt lat="59.930961797962759" lon="10.722563599139214">
        <ele>106.327</ele>
        <time>2026-07-26T10:07:53Z</time>
      </trkpt>
      <trkpt lat="59.93091208554597" lon="10.722613837335825">
        <ele>106.405</ele>
        <time>2026-07-26T10:07:54Z</time>
      </trkpt>
      <trkpt lat="59.930861979582779" lon="10.722663595954879">
        <ele>106.45</ele>
        <time>2026-07-26T10:07:55Z</time>
      </trkpt>
    </trkseg>
  </trk>
</gpx>
